CCSDS_OMM_VERS = 2.0
CREATION_DATE  = 
ORIGINATOR     = 

OBJECT_NAME    = COSMOS 1933
OBJECT_ID      = 1988-020A
CENTER_NAME    = EARTH
REF_FRAME      = TEME
TIME_SYSTEM    = UTC
MEAN_ELEMENT_THEORY = SGP/SGP4

EPOCH          = 2026-02-05T02:11:16.068480
MEAN_MOTION    = 15.17699278
ECCENTRICITY   = .0003424
INCLINATION    = 82.5127
RA_OF_ASC_NODE = 283.1629
ARG_OF_PERICENTER = 337.3350
MEAN_ANOMALY   = 22.7731

EPHEMERIS_TYPE = 0
CLASSIFICATION_TYPE = U
NORAD_CAT_ID   = 18958
ELEMENT_SET_NO = 999
REV_AT_EPOCH   = 4528
BSTAR          = .29222E-3
MEAN_MOTION_DOT = .5919E-4
MEAN_MOTION_DDOT = 0

CCSDS_OMM_VERS = 2.0
CREATION_DATE  = 
ORIGINATOR     = 

OBJECT_NAME    = SL-3 R/B
OBJECT_ID      = 1988-032B
CENTER_NAME    = EARTH
REF_FRAME      = TEME
TIME_SYSTEM    = UTC
MEAN_ELEMENT_THEORY = SGP/SGP4

EPOCH          = 2026-02-05T03:20:49.726752
MEAN_MOTION    = 15.19478396
ECCENTRICITY   = .0025926
INCLINATION    = 97.5149
RA_OF_ASC_NODE = 19.5288
ARG_OF_PERICENTER = 352.0730
MEAN_ANOMALY   = 8.0091

EPHEMERIS_TYPE = 0
CLASSIFICATION_TYPE = U
NORAD_CAT_ID   = 19046
ELEMENT_SET_NO = 999
REV_AT_EPOCH   = 4716
BSTAR          = .38048E-3
MEAN_MOTION_DOT = .8076E-4
MEAN_MOTION_DDOT = 0

CCSDS_OMM_VERS = 2.0
CREATION_DATE  = 
ORIGINATOR     = 

OBJECT_NAME    = SL-16 R/B
OBJECT_ID      = 1988-039B
CENTER_NAME    = EARTH
REF_FRAME      = TEME
TIME_SYSTEM    = UTC
MEAN_ELEMENT_THEORY = SGP/SGP4

EPOCH          = 2026-02-04T20:42:26.712288
MEAN_MOTION    = 14.19611509
ECCENTRICITY   = .0020762
INCLINATION    = 71.0150
RA_OF_ASC_NODE = 137.9621
ARG_OF_PERICENTER = 24.7038
MEAN_ANOMALY   = 335.5076

EPHEMERIS_TYPE = 0
CLASSIFICATION_TYPE = U
NORAD_CAT_ID   = 19120
ELEMENT_SET_NO = 999
REV_AT_EPOCH   = 95372
BSTAR          = .20065E-4
MEAN_MOTION_DOT = -.6E-7
MEAN_MOTION_DDOT = 0

CCSDS_OMM_VERS = 2.0
CREATION_DATE  = 
ORIGINATOR     = 

OBJECT_NAME    = COSMOS 1953
OBJECT_ID      = 1988-050A
CENTER_NAME    = EARTH
REF_FRAME      = TEME
TIME_SYSTEM    = UTC
MEAN_ELEMENT_THEORY = SGP/SGP4

EPOCH          = 2026-02-05T03:33:14.155200
MEAN_MOTION    = 15.27848674
ECCENTRICITY   = .0010519
INCLINATION    = 82.5090
RA_OF_ASC_NODE = 190.9523
ARG_OF_PERICENTER = 236.2476
MEAN_ANOMALY   = 123.7762

EPHEMERIS_TYPE = 0
CLASSIFICATION_TYPE = U
NORAD_CAT_ID   = 19210
ELEMENT_SET_NO = 999
REV_AT_EPOCH   = 3281
BSTAR          = .46534E-3
MEAN_MOTION_DOT = .12707E-3
MEAN_MOTION_DDOT = 0

CCSDS_OMM_VERS = 2.0
CREATION_DATE  = 
ORIGINATOR     = 

OBJECT_NAME    = SL-8 R/B
OBJECT_ID      = 1988-053B
CENTER_NAME    = EARTH
REF_FRAME      = TEME
TIME_SYSTEM    = UTC
MEAN_ELEMENT_THEORY = SGP/SGP4

EPOCH          = 2026-02-04T22:12:19.156608
MEAN_MOTION    = 14.38895556
ECCENTRICITY   = .0020244
INCLINATION    = 74.0476
RA_OF_ASC_NODE = 172.8530
ARG_OF_PERICENTER = 358.4279
MEAN_ANOMALY   = 141.1402

EPHEMERIS_TYPE = 0
CLASSIFICATION_TYPE = U
NORAD_CAT_ID   = 19257
ELEMENT_SET_NO = 999
REV_AT_EPOCH   = 97188
BSTAR          = .10812E-3
MEAN_MOTION_DOT = .307E-5
MEAN_MOTION_DDOT = 0

CCSDS_OMM_VERS = 2.0
CREATION_DATE  = 
ORIGINATOR     = 

OBJECT_NAME    = COSMOS 1975
OBJECT_ID      = 1988-093A
CENTER_NAME    = EARTH
REF_FRAME      = TEME
TIME_SYSTEM    = UTC
MEAN_ELEMENT_THEORY = SGP/SGP4

EPOCH          = 2026-02-04T17:08:54.831264
MEAN_MOTION    = 15.27474154
ECCENTRICITY   = .001041
INCLINATION    = 82.5229
RA_OF_ASC_NODE = 150.7614
ARG_OF_PERICENTER = 288.0974
MEAN_ANOMALY   = 71.9130

EPHEMERIS_TYPE = 0
CLASSIFICATION_TYPE = U
NORAD_CAT_ID   = 19573
ELEMENT_SET_NO = 999
REV_AT_EPOCH   = 1437
BSTAR          = .36696E-3
MEAN_MOTION_DOT = .9911E-4
MEAN_MOTION_DDOT = 0

CCSDS_OMM_VERS = 2.0
CREATION_DATE  = 
ORIGINATOR     = 

OBJECT_NAME    = SL-14 R/B
OBJECT_ID      = 1988-093B
CENTER_NAME    = EARTH
REF_FRAME      = TEME
TIME_SYSTEM    = UTC
MEAN_ELEMENT_THEORY = SGP/SGP4

EPOCH          = 2026-02-05T02:57:05.902272
MEAN_MOTION    = 14.85620162
ECCENTRICITY   = .002167
INCLINATION    = 82.5282
RA_OF_ASC_NODE = 72.6245
ARG_OF_PERICENTER = 142.5331
MEAN_ANOMALY   = 236.7970

EPHEMERIS_TYPE = 0
CLASSIFICATION_TYPE = U
NORAD_CAT_ID   = 19574
ELEMENT_SET_NO = 999
REV_AT_EPOCH   = 99620
BSTAR          = .60311E-4
MEAN_MOTION_DOT = .549E-5
MEAN_MOTION_DDOT = 0

CCSDS_OMM_VERS = 2.0
CREATION_DATE  = 
ORIGINATOR     = 

OBJECT_NAME    = SL-16 R/B
OBJECT_ID      = 1988-102B
CENTER_NAME    = EARTH
REF_FRAME      = TEME
TIME_SYSTEM    = UTC
MEAN_ELEMENT_THEORY = SGP/SGP4

EPOCH          = 2026-02-04T23:44:09.689856
MEAN_MOTION    = 14.16146016
ECCENTRICITY   = .0012261
INCLINATION    = 70.9970
RA_OF_ASC_NODE = 220.2985
ARG_OF_PERICENTER = 55.6681
MEAN_ANOMALY   = 304.5600

EPHEMERIS_TYPE = 0
CLASSIFICATION_TYPE = U
NORAD_CAT_ID   = 19650
ELEMENT_SET_NO = 999
REV_AT_EPOCH   = 92226
BSTAR          = .16258E-4
MEAN_MOTION_DOT = -.16E-6
MEAN_MOTION_DDOT = 0

CCSDS_OMM_VERS = 2.0
CREATION_DATE  = 
ORIGINATOR     = 

OBJECT_NAME    = INTERCOSMOS 24
OBJECT_ID      = 1989-080A
CENTER_NAME    = EARTH
REF_FRAME      = TEME
TIME_SYSTEM    = UTC
MEAN_ELEMENT_THEORY = SGP/SGP4

EPOCH          = 2026-02-04T16:20:56.801472
MEAN_MOTION    = 12.59512764
ECCENTRICITY   = .1188283
INCLINATION    = 82.6071
RA_OF_ASC_NODE = 125.8871
ARG_OF_PERICENTER = 9.4626
MEAN_ANOMALY   = 352.6840

EPHEMERIS_TYPE = 0
CLASSIFICATION_TYPE = U
NORAD_CAT_ID   = 20261
ELEMENT_SET_NO = 999
REV_AT_EPOCH   = 66264
BSTAR          = .17717E-3
MEAN_MOTION_DOT = .616E-5
MEAN_MOTION_DDOT = 0

CCSDS_OMM_VERS = 2.0
CREATION_DATE  = 
ORIGINATOR     = 

OBJECT_NAME    = SL-14 R/B
OBJECT_ID      = 1989-080C
CENTER_NAME    = EARTH
REF_FRAME      = TEME
TIME_SYSTEM    = UTC
MEAN_ELEMENT_THEORY = SGP/SGP4

EPOCH          = 2026-02-04T21:48:35.495424
MEAN_MOTION    = 12.50454876
ECCENTRICITY   = .1229421
INCLINATION    = 82.5939
RA_OF_ASC_NODE = 194.2310
ARG_OF_PERICENTER = 259.7185
MEAN_ANOMALY   = 86.3359

EPHEMERIS_TYPE = 0
CLASSIFICATION_TYPE = U
NORAD_CAT_ID   = 20262
ELEMENT_SET_NO = 999
REV_AT_EPOCH   = 65605
BSTAR          = .13319E-3
MEAN_MOTION_DOT = .439E-5
MEAN_MOTION_DDOT = 0

CCSDS_OMM_VERS = 2.0
CREATION_DATE  = 
ORIGINATOR     = 

OBJECT_NAME    = DELTA 1 R/B
OBJECT_ID      = 1989-089B
CENTER_NAME    = EARTH
REF_FRAME      = TEME
TIME_SYSTEM    = UTC
MEAN_ELEMENT_THEORY = SGP/SGP4

EPOCH          = 2026-02-04T13:56:28.929696
MEAN_MOTION    = 14.50634273
ECCENTRICITY   = .006795
INCLINATION    = 97.0728
RA_OF_ASC_NODE = 248.2802
ARG_OF_PERICENTER = 226.5532
MEAN_ANOMALY   = 133.0001

EPHEMERIS_TYPE = 0
CLASSIFICATION_TYPE = U
NORAD_CAT_ID   = 20323
ELEMENT_SET_NO = 999
REV_AT_EPOCH   = 89093
BSTAR          = .1307E-3
MEAN_MOTION_DOT = .492E-5
MEAN_MOTION_DDOT = 0

CCSDS_OMM_VERS = 2.0
CREATION_DATE  = 
ORIGINATOR     = 

OBJECT_NAME    = ARIANE 40 R/B
OBJECT_ID      = 1990-005H
CENTER_NAME    = EARTH
REF_FRAME      = TEME
TIME_SYSTEM    = UTC
MEAN_ELEMENT_THEORY = SGP/SGP4

EPOCH          = 2026-02-05T03:39:34.067232
MEAN_MOTION    = 14.39848194
ECCENTRICITY   = .0009058
INCLINATION    = 98.3153
RA_OF_ASC_NODE = 97.7718
ARG_OF_PERICENTER = 306.4098
MEAN_ANOMALY   = 53.6255

EPHEMERIS_TYPE = 0
CLASSIFICATION_TYPE = U
NORAD_CAT_ID   = 20443
ELEMENT_SET_NO = 999
REV_AT_EPOCH   = 88812
BSTAR          = .12591E-3
MEAN_MOTION_DOT = .353E-5
MEAN_MOTION_DDOT = 0

