COSMOS 1933             
1 18958U 88020A   26036.09115820  .00005919  00000+0  29222-3 0  9995
2 18958  82.5127 283.1629 0003424 337.3350  22.7731 15.17699278 45282
SL-3 R/B                
1 19046U 88032B   26036.13946443  .00008076  00000+0  38048-3 0  9998
2 19046  97.5149  19.5288 0025926 352.0730   8.0091 15.19478396 47163
SL-16 R/B               
1 19120U 88039B   26035.86280917 -.00000006  00000+0  20065-4 0  9991
2 19120  71.0150 137.9621 0020762  24.7038 335.5076 14.19611509953721
COSMOS 1953             
1 19210U 88050A   26036.14808050  .00012707  00000+0  46534-3 0  9998
2 19210  82.5090 190.9523 0010519 236.2476 123.7762 15.27848674 32818
SL-8 R/B                
1 19257U 88053B   26035.92522172  .00000307  00000+0  10812-3 0  9998
2 19257  74.0476 172.8530 0020244 358.4279 141.1402 14.38895556971880
COSMOS 1975             
1 19573U 88093A   26035.71452351  .00009911  00000+0  36696-3 0  9999
2 19573  82.5229 150.7614 0010410 288.0974  71.9130 15.27474154 14379
SL-14 R/B               
1 19574U 88093B   26036.12298498  .00000549  00000+0  60311-4 0  9996
2 19574  82.5282  72.6245 0021670 142.5331 236.7970 14.85620162996201
SL-16 R/B               
1 19650U 88102B   26035.98900104 -.00000016  00000+0  16258-4 0  9990
2 19650  70.9970 220.2985 0012261  55.6681 304.5600 14.16146016922265
INTERCOSMOS 24          
1 20261U 89080A   26035.68121298  .00000616  00000+0  17717-3 0  9997
2 20261  82.6071 125.8871 1188283   9.4626 352.6840 12.59512764662641
SL-14 R/B               
1 20262U 89080C   26035.90874416  .00000439  00000+0  13319-3 0  9997
2 20262  82.5939 194.2310 1229421 259.7185  86.3359 12.50454876656056
DELTA 1 R/B             
1 20323U 89089B   26035.58089039  .00000492  00000+0  13070-3 0  9990
2 20323  97.0728 248.2802 0067950 226.5532 133.0001 14.50634273890935
ARIANE 40 R/B           
1 20443U 90005H   26036.15247763  .00000353  00000+0  12591-3 0  9990
2 20443  98.3153  97.7718 0009058 306.4098  53.6255 14.39848194888129
